{
    "links": {
        "self": "http://www.neowsapp.com/rest/v1/neo/3802419?api_key=iIulBulltgU6a56xZRHN4H3l9WmuAYTsLGpBGhQ2"
    },
    "id": "3802419",
    "neo_reference_id": "3802419",
    "name": "(2018 GG1)",
    "designation": "2018 GG1",
    "nasa_jpl_url": "http://ssd.jpl.nasa.gov/sbdb.cgi?sstr=3802419",
    "absolute_magnitude_h": 22.5,
    "estimated_diameter": {
        "kilometers": {
            "estimated_diameter_min": 0.0840533402,
            "estimated_diameter_max": 0.1879489824
        },
        "meters": {
            "estimated_diameter_min": 84.0533402073,
            "estimated_diameter_max": 187.9489824394
        },
        "miles": {
            "estimated_diameter_min": 0.0522283081,
            "estimated_diameter_max": 0.1167860472
        },
        "feet": {
            "estimated_diameter_min": 275.7655606856,
            "estimated_diameter_max": 616.6305395464
        }
    },
    "is_potentially_hazardous_asteroid": false,
    "close_approach_data": [
        {
            "close_approach_date": "2018-05-11",
            "close_approach_date_full": "2018-May-11 09:20",
            "epoch_date_close_approach": 1526030400000,
            "relative_velocity": {
                "kilometers_per_second": "13.1261211998",
                "kilometers_per_hour": "47254.0363191583",
                "miles_per_hour": "29361.820511757"
            },
            "miss_distance": {
                "astronomical": "0.1369404204",
                "lunar": "53.2698235356",
                "kilometers": "20485995.208744548",
                "miles": "12729407.1522608424"
            },
            "orbiting_body": "Earth"
        }
    ],
    "orbital_data": {
        "orbit_id": "4",
        "orbit_determination_date": "2018-05-08 06:19:27",
        "first_observation_date": "2018-04-08",
        "last_observation_date": "2018-05-08",
        "data_arc_in_days": 30,
        "observations_used": 36,
        "orbit_uncertainty": "8",
        "minimum_orbit_intersection": ".0225592",
        "jupiter_tisserand_invariant": "2.927",
        "epoch_osculation": "2458220.5",
        "eccentricity": ".6546613041155475",
        "semi_major_axis": "2.780089539029511",
        "inclination": "17.16916351291784",
        "ascending_node_longitude": "30.22037658635811",
        "orbital_period": "1693.115564923107",
        "perihelion_distance": ".9600724958504601",
        "perihelion_argument": "215.0991148143437",
        "aphelion_distance": "4.600106582208561",
        "perihelion_time": "2458265.633157911519",
        "mean_anomaly": "350.4035275649452",
        "mean_motion": ".212625769592018",
        "equinox": "J2000",
        "orbit_class": {
            "orbit_class_type": "APO",
            "orbit_class_description": "Near-Earth asteroid orbits which cross the Earth’s orbit similar to that of 1862 Apollo",
            "orbit_class_range": "a (semi-major axis) > 1.0 AU; q (perihelion) < 1.017 AU"
        }
    },
    "is_sentry_object": false
}